OBJECT A                
1 60235U 24128A   26074.63814226  .00002822  00000+0  22985-3 0  9996
2 60235  61.9937 196.5292 0059978 113.9917 246.7468 15.00690574 91965
